GLOBALSTAR M024 [-]     
1 25883U 99043A   24082.92380002  .00000023  00000+0  31316-2 0  9991
2 25883  52.0045 318.8229 0002289  81.6369  12.0984 11.10159250 64741
GLOBALSTAR M027 [-]     
1 25884U 99043B   24082.83822876 -.00000097  00000+0 -12762-2 0  9999
2 25884  52.0251  24.2068 0021435 343.8583  16.1525 11.04367236 91378
GLOBALSTAR M053 [-]     
1 25886U 99043D   24082.44863062 -.00000039  00000+0  86125-3 0  9990
2 25886  51.9964 150.2186 0003172  43.5265  48.3116 11.27654133 68488
GLOBALSTAR M058 [-]     
1 25907U 99049A   24083.53581051 -.00000087  00000+0 -40537-4 0  9998
2 25907  51.9926 232.5074 0003081 124.2562 235.8564 11.93179050 98954
GLOBALSTAR M050 [-]     
1 25908U 99049B   24083.54043653 -.00000149  00000+0 -68869-3 0  9997
2 25908  51.9975 273.8399 0008703 208.3158 167.3320 12.07430653 98480
GLOBALSTAR M033 [-]     
1 25909U 99049C   24083.43519897 -.00000100  00000+0 -80299-4 0  9993
2 25909  51.9900 177.0957 0011951  66.5744 293.6358 12.20269909113445
GLOBALSTAR M055 [-]     
1 25910U 99049D   24083.52162231 -.00000084  00000+0  87367-4 0  9994
2 25910  52.0006 209.5292 0006297 273.4899  86.5233 12.29397512113077
